[{"OBJECT_NAME":"IRIDIUM 173","OBJECT_ID":"2019-002D","EPOCH":"2026-03-04T11:08:22.768224","MEAN_MOTION":14.34214096,"ECCENTRICITY":0.00020266,"INCLINATION":86.3957,"RA_OF_ASC_NODE":37.3173,"ARG_OF_PERICENTER":80.2387,"MEAN_ANOMALY":279.9038,"EPHEMERIS_TYPE":0,"CLASSIFICATION_TYPE":"U","NORAD_CAT_ID":43925,"ELEMENT_SET_NO":999,"REV_AT_EPOCH":37394,"BSTAR":-0.00023274099,"MEAN_MOTION_DOT":-6.32e-6,"MEAN_MOTION_DDOT":0},{"OBJECT_NAME":"IRIDIUM 169","OBJECT_ID":"2019-002E","EPOCH":"2026-03-04T12:01:48.476928","MEAN_MOTION":14.3861081,"ECCENTRICITY":0.00015472,"INCLINATION":86.4166,"RA_OF_ASC_NODE":68.9587,"ARG_OF_PERICENTER":75.717,"MEAN_ANOMALY":284.4201,"EPHEMERIS_TYPE":0,"CLASSIFICATION_TYPE":"U","NORAD_CAT_ID":43926,"ELEMENT_SET_NO":999,"REV_AT_EPOCH":37517,"BSTAR":7.9640226e-5,"MEAN_MOTION_DOT":2.64e-6,"MEAN_MOTION_DDOT":0},{"OBJECT_NAME":"IRIDIUM 172","OBJECT_ID":"2019-002F","EPOCH":"2026-03-04T12:39:42.918912","MEAN_MOTION":14.34217863,"ECCENTRICITY":0.00023735,"INCLINATION":86.3964,"RA_OF_ASC_NODE":37.298,"ARG_OF_PERICENTER":86.5928,"MEAN_ANOMALY":273.5539,"EPHEMERIS_TYPE":0,"CLASSIFICATION_TYPE":"U","NORAD_CAT_ID":43927,"ELEMENT_SET_NO":999,"REV_AT_EPOCH":37396,"BSTAR":1.3031613e-5,"MEAN_MOTION_DOT":5.6e-7,"MEAN_MOTION_DDOT":0},{"OBJECT_NAME":"IRIDIUM 175","OBJECT_ID":"2019-002G","EPOCH":"2026-03-04T06:43:31.135008","MEAN_MOTION":14.72246863,"ECCENTRICITY":0.00022594,"INCLINATION":86.1544,"RA_OF_ASC_NODE":335.2257,"ARG_OF_PERICENTER":111.0196,"MEAN_ANOMALY":249.1262,"EPHEMERIS_TYPE":0,"CLASSIFICATION_TYPE":"U","NORAD_CAT_ID":43928,"ELEMENT_SET_NO":999,"REV_AT_EPOCH":38380,"BSTAR":0.00011914936,"MEAN_MOTION_DOT":7.76e-6,"MEAN_MOTION_DDOT":0},{"OBJECT_NAME":"IRIDIUM 171","OBJECT_ID":"2019-002H","EPOCH":"2026-03-04T13:52:46.917120","MEAN_MOTION":14.34217219,"ECCENTRICITY":0.00019689,"INCLINATION":86.3969,"RA_OF_ASC_NODE":37.572,"ARG_OF_PERICENTER":91.5672,"MEAN_ANOMALY":268.5749,"EPHEMERIS_TYPE":0,"CLASSIFICATION_TYPE":"U","NORAD_CAT_ID":43929,"ELEMENT_SET_NO":999,"REV_AT_EPOCH":37396,"BSTAR":-1.8571619e-5,"MEAN_MOTION_DOT":-3.2e-7,"MEAN_MOTION_DDOT":0},{"OBJECT_NAME":"IRIDIUM 170","OBJECT_ID":"2019-002J","EPOCH":"2026-03-04T10:14:46.631904","MEAN_MOTION":14.72258957,"ECCENTRICITY":0.00026432,"INCLINATION":86.6082,"RA_OF_ASC_NODE":37.3259,"ARG_OF_PERICENTER":91.2509,"MEAN_ANOMALY":268.9011,"EPHEMERIS_TYPE":0,"CLASSIFICATION_TYPE":"U","NORAD_CAT_ID":43930,"ELEMENT_SET_NO":999,"REV_AT_EPOCH":38384,"BSTAR":0.00021680118,"MEAN_MOTION_DOT":1.392e-5,"MEAN_MOTION_DDOT":0},{"OBJECT_NAME":"IRIDIUM 167","OBJECT_ID":"2019-002K","EPOCH":"2026-03-04T10:22:42.851424","MEAN_MOTION":14.34217476,"ECCENTRICITY":0.00017381,"INCLINATION":86.3961,"RA_OF_ASC_NODE":37.3597,"ARG_OF_PERICENTER":90.7179,"MEAN_ANOMALY":269.4216,"EPHEMERIS_TYPE":0,"CLASSIFICATION_TYPE":"U","NORAD_CAT_ID":43931,"ELEMENT_SET_NO":999,"REV_AT_EPOCH":37394,"BSTAR":-1.465877e-5,"MEAN_MOTION_DOT":-2.1e-7,"MEAN_MOTION_DDOT":0},{"OBJECT_NAME":"IRIDIUM 181","OBJECT_ID":"2023-068S","EPOCH":"2026-03-04T11:43:17.848992","MEAN_MOTION":14.4331517,"ECCENTRICITY":0.00026103,"INCLINATION":86.446,"RA_OF_ASC_NODE":100.5758,"ARG_OF_PERICENTER":97.9601,"MEAN_ANOMALY":262.1896,"EPHEMERIS_TYPE":0,"CLASSIFICATION_TYPE":"U","NORAD_CAT_ID":56726,"ELEMENT_SET_NO":999,"REV_AT_EPOCH":14733,"BSTAR":0.00013214939,"MEAN_MOTION_DOT":4.65e-6,"MEAN_MOTION_DDOT":0},{"OBJECT_NAME":"IRIDIUM 177","OBJECT_ID":"2023-068T","EPOCH":"2026-03-04T08:05:40.426080","MEAN_MOTION":14.80243319,"ECCENTRICITY":0.00023669,"INCLINATION":86.1996,"RA_OF_ASC_NODE":18.5624,"ARG_OF_PERICENTER":80.6925,"MEAN_ANOMALY":279.4564,"EPHEMERIS_TYPE":0,"CLASSIFICATION_TYPE":"U","NORAD_CAT_ID":56727,"ELEMENT_SET_NO":999,"REV_AT_EPOCH":15085,"BSTAR":0.00028215619,"MEAN_MOTION_DOT":2.171e-5,"MEAN_MOTION_DDOT":0},{"OBJECT_NAME":"IRIDIUM 174","OBJECT_ID":"2023-068U","EPOCH":"2026-03-04T09:56:58.998336","MEAN_MOTION":14.72262153,"ECCENTRICITY":0.00025851,"INCLINATION":86.6092,"RA_OF_ASC_NODE":37.4681,"ARG_OF_PERICENTER":83.1939,"MEAN_ANOMALY":276.9572,"EPHEMERIS_TYPE":0,"CLASSIFICATION_TYPE":"U","NORAD_CAT_ID":56728,"ELEMENT_SET_NO":999,"REV_AT_EPOCH":15060,"BSTAR":0.00023568259,"MEAN_MOTION_DOT":1.511e-5,"MEAN_MOTION_DDOT":0},{"OBJECT_NAME":"IRIDIUM 178","OBJECT_ID":"2023-068V","EPOCH":"2026-03-04T11:04:40.839456","MEAN_MOTION":14.80231166,"ECCENTRICITY":0.00023332,"INCLINATION":86.6483,"RA_OF_ASC_NODE":69.1262,"ARG_OF_PERICENTER":98.7731,"MEAN_ANOMALY":261.3755,"EPHEMERIS_TYPE":0,"CLASSIFICATION_TYPE":"U","NORAD_CAT_ID":56729,"ELEMENT_SET_NO":999,"REV_AT_EPOCH":15087,"BSTAR":0.00010323428,"MEAN_MOTION_DOT":8.11e-6,"MEAN_MOTION_DDOT":0},{"OBJECT_NAME":"IRIDIUM 179","OBJECT_ID":"2023-068W","EPOCH":"2026-03-04T10:56:56.837760","MEAN_MOTION":14.80240896,"ECCENTRICITY":0.00022627,"INCLINATION":86.6717,"RA_OF_ASC_NODE":77.8044,"ARG_OF_PERICENTER":93.6045,"MEAN_ANOMALY":266.5436,"EPHEMERIS_TYPE":0,"CLASSIFICATION_TYPE":"U","NORAD_CAT_ID":56730,"ELEMENT_SET_NO":999,"REV_AT_EPOCH":15087,"BSTAR":9.7817066e-5,"MEAN_MOTION_DOT":7.7e-6,"MEAN_MOTION_DDOT":0}]
