IRIDIUM 173             
1 43925U 19002D   26063.46415241 -.00000632  00000+0 -23274-3 0  9992
2 43925  86.3957  37.3173 0002026  80.2387 279.9038 14.34214096373943
IRIDIUM 169             
1 43926U 19002E   26063.50125552  .00000264  00000+0  79640-4 0  9999
2 43926  86.4166  68.9587 0001547  75.7170 284.4201 14.38610810375170
IRIDIUM 172             
1 43927U 19002F   26063.52758008  .00000056  00000+0  13032-4 0  9992
2 43927  86.3964  37.2980 0002373  86.5928 273.5539 14.34217863373966
IRIDIUM 175             
1 43928U 19002G   26063.28022147  .00000776  00000+0  11915-3 0  9990
2 43928  86.1544 335.2257 0002259 111.0196 249.1262 14.72246863383801
IRIDIUM 171             
1 43929U 19002H   26063.57832080 -.00000032  00000+0 -18572-4 0  9992
2 43929  86.3969  37.5720 0001968  91.5672 268.5749 14.34217219373961
IRIDIUM 170             
1 43930U 19002J   26063.42692861  .00001392  00000+0  21680-3 0  9990
2 43930  86.6082  37.3259 0002643  91.2509 268.9011 14.72258957383844
IRIDIUM 167             
1 43931U 19002K   26063.43244041 -.00000021  00000+0 -14659-4 0  9994
2 43931  86.3961  37.3597 0001738  90.7179 269.4216 14.34217476373946
IRIDIUM 181             
1 56726U 23068S   26063.48840103  .00000465  00000+0  13215-3 0  9999
2 56726  86.4460 100.5758 0002610  97.9601 262.1896 14.43315170147334
IRIDIUM 177             
1 56727U 23068T   26063.33727345  .00002171  00000+0  28216-3 0  9999
2 56727  86.1996  18.5624 0002366  80.6925 279.4564 14.80243319150852
IRIDIUM 174             
1 56728U 23068U   26063.41457174  .00001511  00000+0  23568-3 0  9991
2 56728  86.6092  37.4681 0002585  83.1939 276.9572 14.72262153150606
IRIDIUM 178             
1 56729U 23068V   26063.46158379  .00000811  00000+0  10323-3 0  9999
2 56729  86.6483  69.1262 0002333  98.7731 261.3755 14.80231166150870
IRIDIUM 179             
1 56730U 23068W   26063.45621340  .00000770  00000+0  97817-4 0  9991
2 56730  86.6717  77.8044 0002262  93.6045 266.5436 14.80240896150872
